NORAD_CAT_ID,OBJECT_NAME,OBJECT_TYPE,EPOCH,MEAN_MOTION,ECCENTRICITY,INCLINATION,RA_OF_ASC_NODE,ARG_OF_PERICENTER,MEAN_ANOMALY,BSTAR,MEAN_MOTION_DOT,MEAN_MOTION_DDOT,TLE_LINE0,TLE_LINE1,TLE_LINE2,SEMIMAJOR_AXIS,PERIOD,APOGEE,PERIGEE,DECAYED
53971.0,STARLINK-4639,PAYLOAD,2022-11-27 14:00:01,15.08804873,0.0001776999999999,53.2132,202.5839,48.1776,158.2138,0.0023281999999999,0.00036924,0.0,0 STARLINK-4639,1 53971U 22125H   22331.58334491  .00036924  00000-0  23282-2 0  9998,2 53971  53.2132 202.5839 0001777  48.1776 158.2138 15.08804873  1303,6917.988,95.44,541.082,538.623,0.0
53971.0,STARLINK-4639,PAYLOAD,2022-11-27 22:00:00,15.08827663,0.0001966,53.2131,201.0892,44.8155,173.1474,-0.00049836,-8.208e-05,0.0,0 STARLINK-4639,1 53971U 22125H   22331.91667824 -.00008208  00000-0 -49836-3 0  9994,2 53971  53.2131 201.0892 0001966  44.8155 173.1474 15.08827663  1300,6917.918000000002,95.438,541.143,538.423,0.0
53971.0,STARLINK-4639,PAYLOAD,2022-11-28 04:00:00,15.08823647,0.0001997,53.2128,199.9669,42.6094,94.0362,0.0012048,0.0001893,0.0,0 STARLINK-4639,1 53971U 22125H   22332.16667824  .00018930  00000-0  12048-2 0  9997,2 53971  53.2128 199.9669 0001997  42.6094  94.0362 15.08823647  8600,6917.93,95.439,541.177,538.414,0.0
53971.0,STARLINK-4639,PAYLOAD,2022-11-28 22:00:01,15.0884098,0.0002008,53.2128,196.5998,47.0197,205.7679,-0.00023783,-4.071e-05,0.0,0 STARLINK-4639,1 53971U 22125H   22332.91668981 -.00004071  00000-0 -23783-3 0  9997,2 53971  53.2128 196.5998 0002008  47.0197 205.7679 15.08840980  1306,6917.877,95.437,541.132,538.3530000000002,0.0
53971.0,STARLINK-4639,PAYLOAD,2022-11-29 04:00:00,15.08843853,0.0002017,53.2125,195.4774,45.003,126.4163,0.0005428,8.362e-05,0.0,0 STARLINK-4639,1 53971U 22125H   22333.16667824  .00008362  00000-0  54280-3 0  9991,2 53971  53.2125 195.4774 0002017  45.0030 126.4163 15.08843853  8752,6917.869000000002,95.437,541.129,538.3380000000002,0.0
53971.0,STARLINK-4639,PAYLOAD,2022-11-29 14:00:01,15.08843828,0.0001825,53.2128,193.6051,51.8027,224.1878,-0.00066525,-0.00010861,0.0,0 STARLINK-4639,1 53971U 22125H   22333.58335648 -.00010861  00000-0 -66525-3 0  9997,2 53971  53.2128 193.6051 0001825  51.8027 224.1878 15.08843828  1305,6917.869000000002,95.437,540.996,538.471,0.0
53971.0,STARLINK-4639,PAYLOAD,2022-11-29 20:00:01,15.08835961,0.0001927,53.2127,192.4843,47.4161,147.2115,-0.0012355,-0.00019896,0.0,0 STARLINK-4639,1 53971U 22125H   22333.83334491 -.00019896  00000-0 -12355-2 0  9998,2 53971  53.2127 192.4843 0001927  47.4161 147.2115 15.08835961  8858,6917.893,95.438,541.091,538.425,0.0
53971.0,STARLINK-4639,PAYLOAD,2022-11-29 22:00:00,15.08825281,0.0002001,53.2128,192.1105,46.357,241.169,9.8045e-05,1.272e-05,0.0,0 STARLINK-4639,1 53971U 22125H   22333.91667824  .00001272  00000-0  98045-4 0  9995,2 53971  53.2128 192.1105 0002001  46.3570 241.1690 15.08825281  1302,6917.925,95.438,541.175,538.406,0.0
53971.0,STARLINK-4639,PAYLOAD,2022-11-30 12:00:00,15.08816862,0.0001866,53.2126,189.4899,50.389,167.4136,0.0026632,0.00042325,0.0,0 STARLINK-4639,1 53971U 22125H   22334.50001157  .00042325  00000-0  26632-2 0  9997,2 53971  53.2126 189.4899 0001866  50.3890 167.4136 15.08816862  8955,6917.951,95.439,541.107,538.525,0.0
53971.0,STARLINK-4639,PAYLOAD,2022-11-30 14:00:01,15.08829006,0.0001871,53.2132,189.1151,52.2712,258.4864,0.001945,0.00030793,0.0,0 STARLINK-4639,1 53971U 22125H   22334.58335648  .00030793  00000-0  19450-2 0  9996,2 53971  53.2132 189.1151 0001871  52.2712 258.4864 15.08829006  1305,6917.9140000000025,95.438,541.073,538.485,0.0
53971.0,STARLINK-4639,PAYLOAD,2022-11-30 22:00:00,15.08868344,0.0002005,53.2149,187.6197,49.3078,272.9796,-0.0049424,-0.00078157,0.0,0 STARLINK-4639,1 53971U 22125H   22334.91667824 -.00078157  00000-0 -49424-2 0  9999,2 53971  53.2149 187.6197 0002005  49.3078 272.9796 15.08868344  1301,6917.794,95.436,541.0459999999998,538.2719999999998,0.0
53971.0,STARLINK-4639,PAYLOAD,2022-12-01 04:00:00,15.08862823,0.0002036,53.2128,186.4985,45.3098,195.6649,-0.0030904,-0.00049168,0.0,0 STARLINK-4639,1 53971U 22125H   22335.16667824 -.00049168  00000-0 -30904-2 0  9990,2 53971  53.2128 186.4985 0002036  45.3098 195.6649 15.08862823  9056,6917.811,95.436,541.0840000000002,538.2669999999998,0.0
53971.0,STARLINK-4639,PAYLOAD,2022-12-01 14:00:01,15.08819257,0.0001901,53.2133,184.6264,50.7462,294.7345,0.0017808,0.00028151,0.0,0 STARLINK-4639,1 53971U 22125H   22335.58334491  .00028151  00000-0  17808-2 0  9992,2 53971  53.2133 184.6264 0001901  50.7462 294.7345 15.08819257  1304,6917.944,95.439,541.124,538.494,0.0
53971.0,STARLINK-4639,PAYLOAD,2022-12-01 20:00:01,15.08835167,0.0002065,53.2131,183.5055,46.9411,217.2889,-0.00072062,-0.00011737,0.0,0 STARLINK-4639,1 53971U 22125H   22335.83335648 -.00011737  00000-0 -72062-3 0  9993,2 53971  53.2131 183.5055 0002065  46.9411 217.2889 15.08835167  9153,6917.895,95.438,541.189,538.332,0.0
53971.0,STARLINK-4639,PAYLOAD,2022-12-01 22:00:00,15.08822939,0.0002128,53.2133,183.1318,46.4594,310.6022,0.00067528,0.0001047,0.0,0 STARLINK-4639,1 53971U 22125H   22335.91667824  .00010470  00000-0  67528-3 0  9998,2 53971  53.2133 183.1318 0002128  46.4594 310.6022 15.08822939  1309,6917.933000000001,95.439,541.27,538.325,0.0
53971.0,STARLINK-4639,PAYLOAD,2022-12-02 14:00:01,15.08835926,0.0002006,53.2136,180.1372,52.015,328.2142,0.0012314,0.00019362,0.0,0 STARLINK-4639,1 53971U 22125H   22336.58334491  .00019362  00000-0  12314-2 0  9994,2 53971  53.2136 180.1372 0002006  52.0150 328.2142 15.08835926  1303,6917.893,95.438,541.146,538.37,0.0
53971.0,STARLINK-4639,PAYLOAD,2022-12-02 20:00:01,15.08845789,0.0002165,53.2135,179.0162,48.0862,250.8422,-0.00074944,-0.00012198,0.0,0 STARLINK-4639,1 53971U 22125H   22336.83334491 -.00012198  00000-0 -74944-3 0  9992,2 53971  53.2135 179.0162 0002165  48.0862 250.8422 15.08845789  9315,6917.863,95.437,541.225,538.23,0.0
53971.0,STARLINK-4639,PAYLOAD,2022-12-02 22:00:00,15.08833514,0.0002207,53.2136,178.6425,47.5143,344.3156,0.00080449,0.00012536,0.0,0 STARLINK-4639,1 53971U 22125H   22336.91667824  .00012536  00000-0  80449-3 0  9991,2 53971  53.2136 178.6425 0002207  47.5143 344.3156 15.08833514  1303,6917.9,95.438,541.2919999999998,538.238,0.0
53971.0,STARLINK-4639,PAYLOAD,2022-12-03 14:00:01,15.08823704,0.0001978,53.2138,175.6479,51.4744,3.5413,0.000684,0.0001061,0.0,0 STARLINK-4639,1 53971U 22125H   22337.58334491  .00010610  00000-0  68400-3 0  9990,2 53971  53.2138 175.6479 0001978  51.4744   3.5413 15.08823704  1306,6917.93,95.439,541.164,538.427,0.0
53971.0,STARLINK-4639,PAYLOAD,2022-12-03 22:00:00,15.08814266,0.0002168,53.2137,174.1531,46.9549,19.6439,0.0010994,0.0001724,0.0,0 STARLINK-4639,1 53971U 22125H   22337.91667824  .00017240  00000-0  10994-2 0  9996,2 53971  53.2137 174.1531 0002168  46.9549  19.6439 15.08814266  1301,6917.959,95.439,541.3240000000002,538.3240000000002,0.0
53971.0,STARLINK-4639,PAYLOAD,2022-12-04 04:00:00,15.08844073,0.0002102,53.2133,173.03,46.6909,298.5808,-0.0020725,-0.00033125,0.0,0 STARLINK-4639,1 53971U 22125H   22338.16667824 -.00033125  00000-0 -20725-2 0  9999,2 53971  53.2133 173.0300 0002102  46.6909 298.5808 15.08844073  9512,6917.868,95.437,541.187,538.279,0.0
53971.0,STARLINK-4639,PAYLOAD,2022-12-04 14:00:01,15.08836532,0.0002001,53.2136,171.1586,53.0268,36.723,0.000148,2.068e-05,0.0,0 STARLINK-4639,1 53971U 22125H   22338.58334491  .00002068  00000-0  14800-3 0  9994,2 53971  53.2136 171.1586 0002001  53.0268  36.7230 15.08836532  1309,6917.891,95.438,541.14,538.372,0.0
53971.0,STARLINK-4639,PAYLOAD,2022-12-04 20:00:01,15.08835757,0.0002157,53.2133,170.0377,48.9996,319.4452,-0.00068256,-0.00011134,0.0,0 STARLINK-4639,1 53971U 22125H   22338.83334491 -.00011134  00000-0 -68256-3 0  9992,2 53971  53.2133 170.0377 0002157  48.9996 319.4452 15.08835757  9612,6917.893,95.438,541.251,538.266,0.0
53971.0,STARLINK-4639,PAYLOAD,2022-12-04 22:00:00,15.08820216,0.0002163,53.2133,169.6638,48.1548,53.1911,0.0015376,0.00024255,0.0,0 STARLINK-4639,1 53971U 22125H   22338.91667824  .00024255  00000-0  15376-2 0  9990,2 53971  53.2133 169.6638 0002163  48.1548  53.1911 15.08820216  1302,6917.941,95.439,541.302,538.31,0.0
53971.0,STARLINK-4639,PAYLOAD,2022-12-05 12:00:00,15.08830573,0.0001992,53.213,167.043,54.8493,336.7778,0.0020825,0.00033002,0.0,0 STARLINK-4639,1 53971U 22125H   22339.50001157  .00033002  00000-0  20825-2 0  9992,2 53971  53.2130 167.0430 0001992  54.8493 336.7778 15.08830573  9714,6917.909000000002,95.438,541.1519999999998,538.396,0.0
53971.0,STARLINK-4639,PAYLOAD,2022-12-05 14:00:01,15.08862615,0.0001983,53.2131,166.6691,56.3436,68.2506,-0.00037002,-6.176e-05,0.0,0 STARLINK-4639,1 53971U 22125H   22339.58335648 -.00006176  00000-0 -37002-3 0  9995,2 53971  53.2131 166.6691 0001983  56.3436  68.2506 15.08862615  1308,6917.811,95.436,541.048,538.304,0.0
53971.0,STARLINK-4639,PAYLOAD,2022-12-05 19:48:35,15.08841433,0.0002013,53.2141,165.5826,49.683,310.4338,0.00018818,2.708e-05,0.0,0 STARLINK-4639,1 53971U 22125H   22339.82540511  .00002708  00000-0  18818-3 0  9998,2 53971  53.2141 165.5826 0002013  49.6830 310.4338 15.08841433  9695,6917.876,95.437,541.134,538.3480000000002,0.0
53971.0,STARLINK-4639,PAYLOAD,2022-12-06 05:20:53,15.08845731,0.0002056,53.2142,163.7983,51.283,308.8346,0.00021019,3.059e-05,0.0,0 STARLINK-4639,1 53971U 22125H   22340.22284373  .00003059  00000-0  21019-3 0  9992,2 53971  53.2142 163.7983 0002056  51.2830 308.8346 15.08845731  9826,6917.863,95.437,541.15,538.306,0.0
53971.0,STARLINK-4639,PAYLOAD,2022-12-06 11:42:26,15.08846058,0.0002052,53.2145,162.6091,53.0937,307.0243,0.0001947,2.812e-05,0.0,0 STARLINK-4639,1 53971U 22125H   22340.48780446  .00002812  00000-0  19470-3 0  9996,2 53971  53.2145 162.6091 0002052  53.0937 307.0243 15.08846058  9797,6917.861999999999,95.437,541.146,538.307,0.0
